BEIDOU-2 IGSO-1 (C06)   
1 36828U 10036A   26086.63883915 -.00000150  00000+0  00000+0 0  9997
2 36828  54.2909 163.6978 0057461 222.7538 133.1758  1.00295665 57273
BEIDOU-2 G4 (C04)       
1 37210U 10057A   26094.23030840 -.00000111  00000+0  00000+0 0  9999
2 37210   3.4642  69.3636 0007321 215.4986 150.6018  1.00271510 56554
BEIDOU-2 IGSO-2 (C07)   
1 37256U 10068A   26086.44836399 -.00000175  00000+0  00000+0 0  9998
2 37256  47.6922 272.8379 0048070 212.2935 326.6285  1.00251076 55976
BEIDOU-2 IGSO-3 (C08)   
1 37384U 11013A   26085.80669791 -.00000176  00000+0  00000+0 0  9991
2 37384  62.3016  40.9294 0034198 190.2272 350.7783  1.00287208 54832
BEIDOU-2 IGSO-4 (C09)   
1 37763U 11038A   26087.66258249 -.00000109  00000+0  00000+0 0  9993
2 37763  54.5871 166.4040 0156581 231.4212 120.2889  1.00260433 53838
BEIDOU-2 IGSO-5 (C10)   
1 37948U 11073A   26093.97039089 -.00000174  00000+0  00000+0 0  9999
2 37948  47.8149 272.4589 0109539 220.8427 142.8662  1.00265759 52398
BEIDOU-2 G5 (C05)       
1 38091U 12008A   26094.18789986  .00000057  00000+0  00000+0 0  9999
2 38091   3.3901  70.1219 0013251 260.9431 347.8598  1.00275805 51622
BEIDOU-2 M3 (C11)       
1 38250U 12018A   26094.08855807 -.00000064  00000+0  00000+0 0  9991
2 38250  55.8207 307.3724 0020184 279.4080  80.3921  1.86229902 94564
BEIDOU-2 M4 (C12)       
1 38251U 12018B   26094.02075009 -.00000064  00000+0  00000+0 0  9994
2 38251  55.7212 306.5945 0011480 286.2876  73.6134  1.86229532 94564
BEIDOU-2 M6 (C14)       
1 38775U 12050B   26093.19377053 -.00000044  00000+0  00000+0 0  9990
2 38775  56.4810  65.3724 0014446 345.0815  14.8482  1.86231006 91912
BEIDOU-2 G6 (C02)       
1 38953U 12059A   26094.05027265 -.00000175  00000+0  00000+0 0  9995
2 38953   4.2347  74.3032 0010894 311.1806 269.0380  1.00271777 49161
BEIDOU-3S IGSO-1S (C31) 
1 40549U 15019A   26082.29086919 -.00000163  00000+0  00000+0 0  9999
2 40549  49.3559 296.4949 0036261 190.1236 255.1180  1.00268843 40213
BEIDOU-3S M2S (C58)     
1 40748U 15037A   26093.68736214 -.00000064  00000+0  00000+0 0  9995
2 40748  54.9362 304.6107 0007866 276.2364  83.6984  1.86232009 72730
BEIDOU-3S M1S (C57)     
1 40749U 15037B   26093.90388687 -.00000063  00000+0  00000+0 0  9997
2 40749  54.9325 304.5916 0004693  43.1589 316.9018  1.86254958 72740
BEIDOU-3S IGSO-2S (C56) 
1 40938U 15053A   26093.91039947 -.00000148  00000+0  00000+0 0  9992
2 40938  49.3401 259.6611 0062363 189.8342 167.2762  1.00277577 38606
BEIDOU-2 IGSO-6 (C13)   
1 41434U 16021A   26092.81344461 -.00000170  00000+0  00000+0 0  9993
2 41434  60.1276  38.7875 0058842 233.3821 307.4549  1.00273243 36729
BEIDOU-2 G7 (C03)       
1 41586U 16037A   26093.98414572 -.00000354  00000+0  00000+0 0  9992
2 41586   1.5375  68.5645 0007309 348.3899 240.0809  1.00278098  6143
